{"lat":49.2811586,"lon":-123.0767324,"timestamp":"2018-05-16T22:30:01.000-07:00","amenity":"community_centre","name":"Korean Community Centre","tags":{"addr:housenumber":"1320","addr:street":"East Hastings Street","phone":"+1-604-255-3739","addr:postcode":"V5L 1S3","addr:city":"Vancouver"}}
{"lat":49.0557594,"lon":-122.1951722,"timestamp":"2017-06-22T21:48:35.000-07:00","amenity":"public_building","name":"Sumas First Nations Hall","tags":{}}
{"lat":49.2819978,"lon":-123.1243463,"timestamp":"2019-03-22T02:51:06.000-07:00","amenity":"cinema","name":"Scotiabank Theatre Vancouver","tags":{"addr:housenumber":"900","website":"https://www.cineplex.com/Theatre/scotiabank-theatre-vancouver","phone":"+1-604-630-1407","addr:street":"Burrard Street","is_in:city":"Vancouver","addr:postcode":"V6Z 3G5","wikidata":"Q38378292","operator":"Cineplex"}}
{"lat":49.2805037,"lon":-123.1068723,"timestamp":"2019-12-01T04:03:46.000-08:00","amenity":"theatre","name":"Cineplex Odeon International Village Cinemas","tags":{"addr:housenumber":"88","alt_name":"Tinseltown","addr:street":"West Pender Street","level":"2","addr:city":"Vancouver"}}
{"lat":49.2792244,"lon":-123.0995102,"timestamp":"2019-09-02T22:08:26.000-07:00","amenity":"university","name":"UBC Learning Exchange","tags":{"addr:housenumber":"612","website":"http://learningexchange.ubc.ca","phone":"+1-604-408-5164","opening_hours":"Mo-We 09:00-12:00,13:00-17:00; Th 09:00-12:00,13:00-19:00; Fr 13:00-17:00","addr:street":"Main Street","fax":"+1-604-682-6807","email":"learning.exchange@ubc.ca"}}
{"lat":49.2568641,"lon":-123.2358195,"timestamp":"2010-03-28T11:09:27.000-07:00","amenity":"community_centre","name":"Leisure Centre","tags":{}}
{"lat":49.283281,"lon":-122.7948501,"timestamp":"2019-09-13T13:56:59.000-07:00","amenity":"community_centre","name":"Glen Pine Pavilion","tags":{"description":"Community Centre for Adults (50+)","addr:housenumber":"1200","addr:street":"Glen Pine Court","addr:postcode":"V3B 2P7","addr:city":"Coquitlam"}}
{"lat":49.3127437,"lon":-123.0827482,"timestamp":"2019-03-19T06:08:10.000-07:00","amenity":"cinema","name":"Cineplex Cinemas Esplanade","tags":{"addr:housenumber":"200","website":"https://www.cineplex.com/Theatre/cineplex-cinemas-esplanade","addr:street":"West Esplanade","is_in:city":"North Vancouver","addr:postcode":"V7M 1A4","operator":"Cineplex"}}
{"lat":49.2255037,"lon":-123.0655768,"timestamp":"2019-09-13T13:57:02.000-07:00","amenity":"community_centre","name":"South Vancouver Neighbourhood House","tags":{"addr:housenumber":"6470","addr:street":"Victoria Drive","addr:city":"Vancouver"}}
{"lat":49.1713655,"lon":-123.1398643,"timestamp":"2016-10-08T17:15:50.000-07:00","amenity":"community_centre","name":"City Centre Community Centre","tags":{"addr:housenumber":"5900","addr:street":"Minoru Boulevard","addr:unit":"105","addr:city":"Richmond"}}
{"lat":49.1713682,"lon":-123.139766,"timestamp":"2018-02-09T05:00:10.000-08:00","amenity":"university","name":"Trinity Western University - Richmond","tags":{"addr:housenumber":"5900","addr:street":"Minoru Boulevard","phone":"+1-604-513-2193","addr:city":"Richmond"}}
{"lat":49.2844778,"lon":-123.1123491,"timestamp":"2016-10-08T17:47:21.000-07:00","amenity":"university","name":"Simon Fraser University - Vancouver Campus","tags":{"addr:housenumber":"515","short_name":"SFU Vancouver","addr:street":"West Hastings Street","addr:city":"Vancouver"}}
{"lat":49.2826068,"lon":-123.108081,"timestamp":"2016-10-09T09:46:32.000-07:00","amenity":"cinema","name":"Goldcorp Centre for the Arts","tags":{"addr:housenumber":"149","alt_name":"Simon Fraser University Goldcorp Centre for the Arts","short_name":"SFU Goldcorp Centre for the Arts","addr:street":"West Hastings Street"}}
{"lat":49.2799912,"lon":-123.1164576,"timestamp":"2020-03-08T23:06:19.000-07:00","amenity":"theatre","name":"The Centre For Performing Arts","tags":{"addr:province":"BC","addr:housenumber":"777","short_name":"The Centre","addr:street":"Homer Street","addr:postcode":"V6B 2W1","wikidata":"Q38378369","addr:city":"Vancouver"}}
{"lat":49.1255297,"lon":-123.178667,"timestamp":"2016-10-12T18:04:14.000-07:00","amenity":"community_centre","name":"Steveston Community Centre","tags":{"name:en":"Steveston Community Centre"}}
{"lat":49.2908899,"lon":-122.8375388,"timestamp":"2016-08-25T16:49:03.000-07:00","amenity":"community_centre","name":"101/103 Parkside Drive Recreational Complex","tags":{"opening_hours":"Mo-Su 06:00-22:00","name:en":"101/103 Parkside Drive Recreational Complex"}}
{"lat":49.2269239,"lon":-123.0020086,"timestamp":"2017-09-03T06:59:20.000-07:00","amenity":"community_centre","name":"Jellybean Park","tags":{"level":"1","name:en":"Jellybean Park"}}
{"lat":49.2253539,"lon":-122.9989338,"timestamp":"2019-02-03T01:58:46.000-08:00","amenity":"community_centre","name":"Jellybeans","tags":{"level":"1","fixme":"This is a commercial child care while the parents are shopping in the mall. I don't think of it as a community centre."}}
{"lat":49.2272203,"lon":-122.9994254,"timestamp":"2017-09-03T06:59:32.000-07:00","amenity":"community_centre","name":"CHQ","tags":{"level":"1","name:en":"CHQ"}}
{"lat":49.2505823,"lon":-122.8958192,"timestamp":"2017-03-13T04:12:45.000-07:00","amenity":"community_centre","name":"Family Lounge","tags":{"name:en":"Family Lounge"}}
{"lat":49.280725,"lon":-123.1066368,"timestamp":"2017-03-13T04:18:41.000-07:00","amenity":"community_centre","name":"Find + Seek","tags":{"name:en":"Find + Seek"}}
{"lat":49.280766,"lon":-123.1068858,"timestamp":"2017-03-13T04:18:37.000-07:00","amenity":"community_centre","name":"Piranha","tags":{"name:en":"Piranha"}}
{"lat":49.2807019,"lon":-123.106855,"timestamp":"2017-03-13T04:18:39.000-07:00","amenity":"community_centre","name":"Game Center","tags":{"name:en":"Game Center"}}
{"lat":49.262662,"lon":-123.0926546,"timestamp":"2019-09-13T13:57:00.000-07:00","amenity":"community_centre","name":"Tonari Gumiâ€“ Japanese Community Volunteers Association","tags":{"addr:housenumber":"511","addr:street":"East Broadway","phone":"+1-604-687-2172","addr:postcode":"V5T 1X4","addr:city":"Vancouver"}}
{"lat":49.2785849,"lon":-123.0706042,"timestamp":"2018-10-14T19:44:52.000-07:00","amenity":"theatre","name":"York Theatre","tags":{"addr:housenumber":"639","website":"http://yorktheatre.ca/","addr:street":"Commercial Drive","addr:postcode":"V5L 2W2","wikidata":"Q38378460"}}
{"lat":49.2701364,"lon":-123.1087347,"timestamp":"2019-03-22T02:52:20.000-07:00","amenity":"theatre","name":"BMO Theatre Centre","tags":{"addr:housenumber":"162","alt_name":"Goldcorp Stage at the BMO Theatre Centre","website":"https://artsclub.com/","addr:street":"West 1st Avenue"}}
{"lat":49.2249319,"lon":-123.1086853,"timestamp":"2019-03-19T06:05:42.000-07:00","amenity":"theatre","name":"Studio 58","tags":{"addr:housenumber":"100","website":"https://langara.ca/studio-58/","phone":"+1-604-323-5227","name:en":"Studio 58","addr:street":"West 49th Avenue","operator":"Studio 58"}}
{"lat":49.2037107,"lon":-123.1375228,"timestamp":"2019-09-13T13:56:59.000-07:00","amenity":"theatre","name":"Metro Theatre","tags":{"addr:housenumber":"1370","website":"https://metrotheatre.com/","phone":"+1-604-266-7191","addr:street":"Southwest Marine Drive","addr:postcode":"V6P 5Z9","wikidata":"Q38378154","addr:city":"Vancouver"}}
{"lat":49.0298938,"lon":-122.800849,"timestamp":"2020-01-30T20:36:08.000-08:00","amenity":"theatre","name":"Coast Capital Playhouse","tags":{"addr:province":"BC","addr:housenumber":"1532","alt_name":"White Rock Players' Club","website":"https://www.whiterockplayers.ca/","phone":"+1-604-536-7535","addr:street":"Johnston Road","addr:city":"White Rock"}}
{"lat":49.3378962,"lon":-123.1600566,"timestamp":"2016-12-01T07:55:32.000-08:00","amenity":"theatre","name":"Kay Meek Centre for the Performing Arts","tags":{"wheelchair":"yes","addr:housenumber":"1700","website":"http://kaymeekcentre.com/","addr:street":"Mathers Avenue","phone":"+1-604-981-6335"}}
{"lat":49.2911911,"lon":-123.1301625,"timestamp":"2016-12-01T08:29:57.000-08:00","amenity":"theatre","name":"PAL Studio Theatre","tags":{"addr:housenumber":"581","alt_name":"Performing Art Lodges Vancouver, Performing Art Lodges Theatre","website":"http://www.palstudiotheatre.com/","addr:street":"Cardero Street","phone":"+1-604-255-4313"}}
{"lat":49.2150615,"lon":-122.9385781,"timestamp":"2017-03-17T17:08:15.000-07:00","amenity":"community_centre","name":"The Stanjean Center","tags":{"name:en":"The Stanjean Center"}}
{"lat":49.1624838,"lon":-122.58526,"timestamp":"2019-09-13T13:56:59.000-07:00","amenity":"community_centre","name":"Fort Langley Lions Senior Hall","tags":{"addr:street":"88 Avenue","addr:city":"Township of Langley"}}
{"lat":49.1165969,"lon":-122.8220789,"timestamp":"2016-12-01T08:45:26.000-08:00","amenity":"theatre","name":"Bell Performing Arts Centre","tags":{"addr:housenumber":"6250","website":"http://www.bellperformingartscentre.com/","addr:street":"144 Street","phone":"+1-604-507-6355","addr:city":"Surrey"}}
{"lat":49.0855287,"lon":-123.0848055,"timestamp":"2010-06-10T23:31:20.000-07:00","amenity":"theatre","name":"Genesis Theater","tags":{}}
{"lat":49.2734049,"lon":-123.1582825,"timestamp":"2019-07-03T23:50:39.000-07:00","amenity":"theatre","name":"Kitsilano Showboat","tags":{}}
{"lat":49.2600139,"lon":-123.1153253,"timestamp":"2016-06-08T19:49:13.000-07:00","amenity":"theatre","name":"Yuck, Yucks Comedy Club","tags":{}}
{"lat":49.03348,"lon":-122.8007654,"timestamp":"2017-02-14T20:25:30.000-08:00","amenity":"cinema","name":"Rialto White Rock","tags":{"website":"http://www.hollywood3.ca/listings/rialto-white-rock/"}}
{"lat":49.2312959,"lon":-123.007224,"timestamp":"2017-03-19T02:33:35.000-07:00","amenity":"community_centre","name":"Partyworld Ktv Burnaby","tags":{"name:en":"Partyworld Ktv Burnaby"}}
{"lat":49.2311656,"lon":-123.0061103,"timestamp":"2017-03-19T02:36:59.000-07:00","amenity":"community_centre","name":"Maple Leaf Music School","tags":{"name:en":"Maple Leaf Music School"}}
{"lat":49.2191845,"lon":-122.9696684,"timestamp":"2017-03-19T05:57:22.000-07:00","amenity":"community_centre","name":"K-Mix Karaoke","tags":{"name:en":"K-Mix Karaoke"}}
{"lat":49.1853915,"lon":-122.8475271,"timestamp":"2017-03-20T04:31:45.000-07:00","amenity":"community_centre","name":"Central City","tags":{"name:en":"Central City"}}
{"lat":49.1898841,"lon":-122.8042948,"timestamp":"2017-03-21T05:02:47.000-07:00","amenity":"community_centre","name":"Interactive Play Park","tags":{"name:en":"Interactive Play Park"}}
{"lat":49.1624436,"lon":-122.8414863,"timestamp":"2016-11-29T07:36:22.000-08:00","amenity":"theatre","name":"Surrey Arts Centre - Main Stage","tags":{"addr:housenumber":"13750","addr:street":"88 Avenue"}}
{"lat":49.0549676,"lon":-122.4828013,"timestamp":"2017-02-19T20:18:39.000-08:00","amenity":"community_centre","name":"Aldergrove Kinsmen Community Centre","tags":{"addr:housenumber":"26770","addr:street":"29 Avenue"}}
{"lat":49.103842,"lon":-122.6571718,"timestamp":"2017-02-19T20:28:28.000-08:00","amenity":"community_centre","name":"Timms Community Centre","tags":{"addr:housenumber":"20399","addr:street":"Douglas Crescent"}}
{"lat":49.164438,"lon":-122.8899195,"timestamp":"2017-02-19T20:32:09.000-08:00","amenity":"community_centre","name":"Kennedy Community Hall Association","tags":{"addr:housenumber":"8870","addr:street":"Scott Road"}}
{"lat":49.1949271,"lon":-122.77745,"timestamp":"2017-02-19T20:36:47.000-08:00","amenity":"community_centre","name":"Fraser Heights Recreation Centre","tags":{"addr:housenumber":"10588","addr:street":"160 Street"}}
{"lat":49.2367332,"lon":-123.0328356,"timestamp":"2019-09-13T13:57:02.000-07:00","amenity":"community_centre","name":"Collingwood Neighbourhood House","tags":{"addr:housenumber":"5288","addr:street":"Joyce Street","addr:city":"Vancouver"}}
{"lat":49.2638667,"lon":-123.0312546,"timestamp":"2019-09-13T13:57:02.000-07:00","amenity":"community_centre","name":"Thunderbird Community Centre","tags":{"addr:housenumber":"2311","addr:street":"Cassiar Street","addr:city":"Vancouver"}}
{"lat":49.08301,"lon":-122.4251634,"timestamp":"2019-09-13T13:56:59.000-07:00","amenity":"community_centre","name":"Edenvale Community Garden and Education Centre","tags":{"addr:housenumber":"4460","addr:street":"Bradner Road","addr:city":"Abbotsford"}}
{"lat":49.2777635,"lon":-123.1236147,"timestamp":"2019-10-16T20:50:09.000-07:00","amenity":"community_centre","name":"Gathering Place","tags":{"opening_hours":"11:00-22:00","addr:housenumber":"609","addr:street":"Helmcken Street","addr:city":"Vancouver"}}
{"lat":49.2098186,"lon":-123.1157123,"timestamp":"2019-02-20T02:36:04.000-08:00","amenity":"cinema","name":"Cineplex Cinemas Marine Gateway and VIP","tags":{"addr:housenumber":"452","website":"https://www.cineplex.com/Theatre/cineplex-cinemas-marine-gateway-and-vip","phone":"+1-604-630-0414","addr:street":"South West Marine Drive","is_in:city":"Vancouver","addr:postcode":"V5X 0C3","operator":"Cineplex"}}
{"lat":49.1709575,"lon":-122.5769659,"timestamp":"2016-11-01T01:10:48.000-07:00","amenity":"community_centre","name":"Trinity Western House","tags":{"website":"http://twu.ca","name:en":"Trinity Western House","addr:street":"Glover Road"}}
{"lat":49.3362548,"lon":-123.0927596,"timestamp":"2017-06-27T17:11:43.000-07:00","amenity":"community_centre","name":"Delbrook Community Recreation Center","tags":{}}
{"lat":49.0290227,"lon":-122.8020832,"timestamp":"2020-04-15T18:49:01.000-07:00","amenity":"community_centre","name":"White Rock Community Centre","tags":{"opening_hours":"Mo-Th 08:30-18:00; Fr 08:30-16:30; Sa 09:00-13:00; PH off","addr:housenumber":"15154","addr:street":"Russell Avenue","operator":"City of White Rock","addr:city":"White Rock"}}
{"lat":49.2433917,"lon":-123.0608254,"timestamp":"2017-03-23T04:34:34.000-07:00","amenity":"community_centre","name":"Billiards","tags":{"name:en":"Billiards"}}
{"lat":49.2813486,"lon":-123.0917551,"timestamp":"2019-09-13T13:57:02.000-07:00","amenity":"community_centre","name":"Downtown Eastside Neighbourhood House","tags":{"addr:housenumber":"573","addr:street":"East Hastings Street","addr:city":"Vancouver"}}
{"lat":49.2313066,"lon":-123.090415,"timestamp":"2019-09-13T13:57:02.000-07:00","amenity":"community_centre","name":"South Hill Neighbourhood Centre","tags":{"addr:housenumber":"5888","addr:street":"Fraser Street","addr:city":"Vancouver"}}
{"lat":49.1873731,"lon":-122.8494792,"timestamp":"2019-06-28T06:17:56.000-07:00","amenity":"university","name":"Simon Fraser University Surrey Campus","tags":{"wheelchair":"yes","addr:housenumber":"13450","website":"https://www.sfu.ca/","phone":"+1-778-782-7400","short_name":"SFU Surrey","addr:street":"102 Avenue","addr:city":"Surrey"}}
{"lat":49.2763126,"lon":-122.8572536,"timestamp":"2017-12-12T13:23:11.000-08:00","amenity":"community_centre","name":"Port Moody Arts Centre (Old City Hall)","tags":{"addr:housenumber":"2425","name:en":"Port Moody Arts Centre (Old City Hall)","addr:street":"Saint Johns Street"}}
{"lat":49.260629,"lon":-123.2514649,"timestamp":"2019-03-25T23:28:37.000-07:00","amenity":"food_court","name":"Open Kitchen","tags":{"internet_access":"wlan","takeaway":"yes","internet_access:fee":"no","smoking":"no"}}
{"lat":49.2825798,"lon":-123.1343242,"timestamp":"2017-03-27T01:06:57.000-07:00","amenity":"community_centre","name":"West End - Coal Harbour Community Policing","tags":{"addr:housenumber":"1267","addr:street":"Davie Street"}}
{"lat":49.1859437,"lon":-123.1336645,"timestamp":"2015-04-14T02:36:27.000-07:00","amenity":"food_court","name":"Yaohan Centre Food Court","tags":{}}
{"lat":49.2477176,"lon":-123.23027,"timestamp":"2018-03-20T21:38:27.000-07:00","amenity":"theatre","name":"Auditorium","tags":{}}
{"lat":49.3253576,"lon":-123.1381996,"timestamp":"2019-04-29T02:08:26.000-07:00","amenity":"cinema","name":"Cineplex Cinemas & VIP","tags":{"brand:wikidata":"Q2972807","wheelchair":"yes","alt_name":"Cineplex VIP cinemas","website":"https://www.cineplex.com","level":"2","brand:wikipedia":"en:Cineplex Entertainment","indoor":"yes","brand":"Cineplex","layer":"2"}}
{"lat":49.1681125,"lon":-122.8906574,"timestamp":"2018-09-07T10:15:19.000-07:00","amenity":"community_centre","name":"Deltassist","tags":{"operator":"Municipality of Delta"}}
{"lat":49.3124337,"lon":-123.0806467,"timestamp":"2015-10-04T19:34:42.000-07:00","amenity":"community_centre","name":"John Braithwaite Community Centre","tags":{}}
{"lat":49.2824032,"lon":-123.1085513,"timestamp":"2019-03-22T02:53:49.000-07:00","amenity":"university","name":"Simon Fraser University","tags":{"addr:housenumber":"149","alt_name":"SFU Woodwards","website":"https://www.sfu.ca/","short_name":"SFU","addr:street":"West Hastings Street"}}
{"lat":49.2544714,"lon":-123.1149885,"timestamp":"2019-09-13T13:56:58.000-07:00","amenity":"cinema","name":"The Park Theatre","tags":{"addr:housenumber":"3440","website":"https://www.cineplex.com/Theatre/the-park-theatre","phone":"+1-604-709-3456","addr:street":"Cambie St.","source":"local_knowledge","addr:postcode":"V5Z 2W8","wikidata":"Q17111702","operator":"Cineplex","addr:city":"Vancouver"}}
{"lat":49.2455783,"lon":-123.1854475,"timestamp":"2019-09-13T13:57:03.000-07:00","amenity":"theatre","name":"Dunbar Theatre","tags":{"addr:housenumber":"4555","addr:street":"Dunbar Street","wikidata":"Q38377943","addr:city":"Vancouver"}}
{"lat":49.1430748,"lon":-123.165036,"timestamp":"2019-06-13T19:19:08.000-07:00","amenity":"community_centre","name":"West Richmond Community Centre","tags":{}}
{"lat":49.1051647,"lon":-122.8068016,"timestamp":"2016-11-29T07:27:51.000-08:00","amenity":"community_centre","name":"Tong Louie Family YMCA","tags":{"wheelchair":"yes","addr:housenumber":"14988","website":"https://gv.ymca.ca/Locations/Surrey/Newton/Tong-Louie-Family-YMCA","phone":"+1-604-575-9622","opening_hours":"Mo-Fr 05:00-23:00; Sa-Su,PH 07:00-21:00; Dec 25 off","addr:street":"57 Avenue"}}
{"lat":49.2770164,"lon":-123.1248993,"timestamp":"2019-09-23T15:35:32.000-07:00","amenity":"cinema","name":"Vancouver International Film Centre","tags":{"addr:housenumber":"1181","alt_name":"Vancity Theatre","phone":"+1-604-683-3456","screen":"1","addr:street":"Seymour Street","addr:postcode":"V6B 3M7","email":"info@viff.org","addr:city":"Vancouver"}}
{"lat":49.3250536,"lon":-123.136371,"timestamp":"2019-04-29T03:53:07.000-07:00","amenity":"food_court","name":"Food Court","tags":{"wheelchair":"yes","indoor":"yes","level":"1","layer":"1"}}
{"lat":49.2812416,"lon":-123.0858949,"timestamp":"2019-03-30T23:00:14.000-07:00","amenity":"theatre","name":"Red Gate Collective","tags":{"addr:housenumber":"855","addr:street":"East Hastings Street"}}
{"lat":49.0053233,"lon":-122.2657478,"timestamp":"2016-05-22T19:31:32.000-07:00","amenity":"theatre","name":"Gallery 7 Theatre","tags":{"description":"Audition, Rehearsal & Workshop Location","website":"http://gallery7theatre.com","level":"0","addr:unit":"100"}}
{"lat":49.3161036,"lon":-123.0202569,"timestamp":"2017-11-06T03:56:13.000-08:00","amenity":"theatre","name":"Blueshore Financial Centre for the Performing Arts","tags":{}}
{"lat":49.273765,"lon":-123.0752492,"timestamp":"2019-09-13T13:57:03.000-07:00","amenity":"theatre","name":"Electric Company Theatre","tags":{"addr:housenumber":"1422","website":"https://www.electriccompanytheatre.com/","addr:street":"William Street","addr:postcode":"V5L 2P7","email":"info@electriccompanytheatre.com","addr:city":"Vancouver"}}
{"lat":49.2804032,"lon":-123.121024,"timestamp":"2019-09-13T13:57:04.000-07:00","amenity":"theatre","name":"The Orpheum","tags":{"addr:housenumber":"884","website":"http://orpheum-theater.com/orpheum_theater_vancouver.php","addr:street":"Granville Street","addr:postcode":"V6Z 1K3","addr:city":"Vancouver"}}
{"lat":49.3269402,"lon":-122.9501617,"timestamp":"2019-12-22T03:03:00.000-08:00","amenity":"theatre","name":"Deep Cove Shaw Theatre","tags":{"addr:housenumber":"4360","addr:street":"Gallant Avenue"}}
{"lat":49.2824825,"lon":-123.1214006,"timestamp":"2019-09-18T23:00:49.000-07:00","amenity":"university","name":"UBC Robson Square","tags":{"wheelchair":"yes","website":"https://robsonsquare.ubc.ca/","internet_access":"yes","level":"-1;-2","internet_access:fee":"no","addr:postcode":"V6Z 3B7","operator":"University of British Columbia","addr:city":"Vancouver","addr:housenumber":"800","phone":"+1-604-822-3333","internet_access:ssid":"ubcvisitor","opening_hours":"Mo-Fr 07:00-22:00; Sa-Su 08:00-17:00","addr:street":"Robson Street"}}
{"lat":49.2820693,"lon":-123.0979109,"timestamp":"2018-10-14T19:44:35.000-07:00","amenity":"theatre","name":"Firehall Arts Centre","tags":{"addr:housenumber":"280","website":"http://firehallartscentre.ca/","addr:street":"East Cordova Street","phone":"+1-604-689-0926","wikidata":"Q5451857"}}
{"lat":49.2241011,"lon":-122.9946329,"timestamp":"2019-09-13T13:56:49.000-07:00","amenity":"community_centre","name":"Bonsor 55+ Centre","tags":{"note":"Built 2013; building outline will be visible on aerial imagery after that date.","addr:housenumber":"6533","website":"https://www.burnaby.ca/Things-To-Do/Community-Centres/Bonsor-Recreation-Complex/Seniors.html","access":"yes","addr:street":"Nelson Avenue","addr:postcode":"V5H 0C2","addr:city":"Burnaby"}}
{"lat":49.143419,"lon":-122.2903467,"timestamp":"2016-02-20T19:18:11.000-08:00","amenity":"theatre","name":"Clark Foundation Theatre","tags":{}}
{"lat":49.2613514,"lon":-123.1384327,"timestamp":"2017-10-22T15:21:00.000-07:00","amenity":"theatre","name":"Stanley Industrial Alliance Stage","tags":{"addr:housenumber":"2750","alt_name":"Stanley Theatre","addr:street":"Granville Street","wikidata":"Q7599693"}}
{"lat":49.260671,"lon":-123.136489,"timestamp":"2018-02-10T16:17:26.000-08:00","amenity":"theatre","name":"Pacific Theatre","tags":{"addr:housenumber":"1440","website":"http://pacifictheatre.org","addr:street":"West 12th Avenue","phone":"+1-604-731-5518"}}
{"lat":49.1838659,"lon":-123.08202,"timestamp":"2015-12-06T22:30:37.000-08:00","amenity":"community_centre","name":"Cambie Community Centre","tags":{"addr:housenumber":"12800","addr:street":"Cambie Road"}}
{"lat":49.0434482,"lon":-122.3013808,"timestamp":"2019-02-18T15:15:22.000-08:00","amenity":"community_centre","name":"Sweeney Neighbourhood Centre","tags":{"addr:housenumber":"33355","website":"https://www.abbotsford.ca/parksrecreationandculture/recreation/facilities_schedules_and_admission.htm","phone":"+1-778-880-8501","addr:street":"Bevan Avenue","addr:postcode":"V2S 1W1","addr:city":"Abbotsford"}}
{"lat":49.0582354,"lon":-122.3780877,"timestamp":"2019-04-27T20:37:04.000-07:00","amenity":"cinema","name":"Cineplex Cinemas Abbotsford and VIP","tags":{"addr:housenumber":"3122","website":"https://www.cineplex.com/Theatre/cineplex-cinemas-abbotsford-and-vip","phone":"+1-604-504-9701","level":"2","addr:street":"Mount Lehman Road","is_in:city":"Abbotsford","addr:unit":"J200","operator":"Cineplex","layer":"2"}}
{"lat":49.1967543,"lon":-123.1398833,"timestamp":"2020-01-13T05:09:43.000-08:00","amenity":"food_court","name":"Food Folk Eatery","tags":{"addr:unit":"66","outdoor_seating":"yes"}}
{"lat":49.1676179,"lon":-122.5874561,"timestamp":"2017-02-03T06:38:14.000-08:00","amenity":"theatre","name":"Chief Sepass Theater","tags":{"note":"Owned and operated by the Langley Fine Arts School.","addr:housenumber":"9096","addr:street":"Trattle Street"}}
{"lat":49.1937013,"lon":-122.8022864,"timestamp":"2020-01-09T02:12:26.000-08:00","amenity":"community_centre","name":"Guilford Recreation Centre","tags":{"wheelchair":"yes","addr:housenumber":"15105","website":"https://www.surrey.ca/culture-recreation/1876.aspx","internet_access":"wlan","phone":"+1-604-502-6360","opening_hours":"Mo-Fr 06:00-22:00; Sa-Su 08:00-20:00","name:en":"Guildford Recreation Centre","addr:street":"105 Avenue"}}
{"lat":49.034793,"lon":-122.0038093,"timestamp":"2010-05-20T01:31:14.000-07:00","amenity":"theatre","name":"Maple Bay Amphitheatre","tags":{}}
{"lat":49.2672532,"lon":-123.2503018,"timestamp":"2018-08-23T01:58:42.000-07:00","amenity":"theatre","name":"The Norm Theatre","tags":{}}
{"lat":49.2799331,"lon":-123.1205671,"timestamp":"2020-03-06T00:00:17.000-08:00","amenity":"theatre","name":"The Orpheum","tags":{"addr:housenumber":"601","website":"http://orpheum-theater.com/orpheum_theater_vancouver.php","addr:street":"Smithe Street","addr:postcode":"V6Z 1K3","wikidata":"Q7103961","addr:city":"Vancouver"}}
{"lat":49.1340436,"lon":-122.304174,"timestamp":"2018-04-11T14:17:53.000-07:00","amenity":"theatre","name":"Opening Nite Theatre","tags":{"addr:housenumber":"33223","website":"https://www.openingnitetheatre.com","addr:street":"North Railway Avenue","addr:postcode":"V2V 1E4","operator":"Opening Nite Theatre Society"}}
{"lat":49.1792107,"lon":-122.8303599,"timestamp":"2019-02-17T12:13:32.000-08:00","amenity":"community_centre","name":"Surrey Nature Centre at Green Timbers","tags":{"addr:housenumber":"14225","website":"https://www.surrey.ca/culture-recreation/2311.aspx","phone":"+1-604-502-6065","addr:street":"Green Timbers Way","addr:postcode":"V3T 0J2","addr:city":"Surrey"}}
{"lat":49.2806911,"lon":-123.1125574,"timestamp":"2017-10-22T15:21:14.000-07:00","amenity":"theatre","name":"Vancouver Playhouse","tags":{"addr:housenumber":"600","addr:street":"Hamilton Street","wikidata":"Q7914233"}}
{"lat":49.2803131,"lon":-123.1131613,"timestamp":"2019-03-19T06:06:43.000-07:00","amenity":"theatre","name":"Queen Elizabeth Theatre","tags":{"wheelchair":"yes","addr:housenumber":"650","website":"https://vancouver.ca/parks-recreation-culture/queen-elizabeth-theatre.aspx","phone":"+1-604-665-3050","addr:street":"Hamilton Street","wikipedia":"en:Queen Elizabeth Theatre","wikidata":"Q7270389"}}
{"lat":49.2856383,"lon":-123.1336819,"timestamp":"2019-03-22T02:54:38.000-07:00","amenity":"community_centre","name":"Gordon Neighbourhood House","tags":{"addr:housenumber":"1019","website":"https://gordonhouse.org/","phone":"+1-604-683-2554","opening_hours":"Mo-Th 09:00-20:00; Fr 09:00-14:00; Sa 09:00-16:00; Su 10:00-15:00","description":"Gordon Neighbourhood House is a community service organization.","addr:street":"Broughton Street","addr:postcode":"V6G 2A7","email":"welcome@gordonhouse.org"}}
{"lat":49.0522798,"lon":-122.3177519,"timestamp":"2019-04-01T18:04:08.000-07:00","amenity":"community_centre","name":"Youth for Christ","tags":{"website":"https://www.youthunlimited.com/programs-and-locations/abbotsford","addr:unit":"2","operator":"Youth Unlimited"}}
{"lat":49.2891958,"lon":-123.110351,"timestamp":"2020-01-19T06:35:09.000-08:00","amenity":"cinema","name":"FlyOver Canada","tags":{"addr:housenumber":"999","website":"https://www.flyovercanada.com/","phone":"+1-604-620-8455","opening_hours":"Su-Sa 10:00-21:00","screen":"1","addr:street":"Canada Place","addr:unit":"201","addr:city":"Vancouver"}}
{"lat":49.2786691,"lon":-123.1264603,"timestamp":"2019-10-27T17:08:25.000-07:00","amenity":"cinema","name":"The Cinematheque","tags":{"addr:housenumber":"1131","website":"http://www.thecinematheque.ca/","internet_access":"wlan","old_name":"Pacific Cinematheque","phone":"+1-604-688-3456","addr:street":"Howe Street","addr:postcode":"V6Z 2L7","wikidata":"Q7122345","addr:city":"Vancouver"}}
{"lat":49.2733419,"lon":-123.1221805,"timestamp":"2019-05-04T04:55:51.000-07:00","amenity":"community_centre","name":"Round House Community Centre","tags":{"opening_hours":"Mo-Fr 09:00-22:00; Sa-Su 09:00-17:00","website":"www.roundhouse.ca"}}
{"lat":49.2782044,"lon":-123.113409,"timestamp":"2020-01-04T17:30:18.000-08:00","amenity":"theatre","name":"Frankie's Jazz Club","tags":{"addr:housenumber":"755","website":"http://www.frankiesjazzclub.ca/","phone":"+1-604-688-6368","addr:street":"Beatty Street","email":"info@frankiesjazzclub.ca","addr:city":"Vancouver"}}
{"lat":49.2527909,"lon":-122.8934829,"timestamp":"2010-12-01T10:44:06.000-08:00","amenity":"park","name":"Fitness City","tags":{}}
{"lat":49.2855421,"lon":-123.0401982,"timestamp":"2018-07-05T21:28:21.000-07:00","amenity":"casino","name":"Casino Slots & Gaming Floor at Hastings Racecourse","tags":{"website":"http://www.hastingsracecourse.com/slot-floor/"}}
{"lat":49.0292491,"lon":-122.8167086,"timestamp":"2019-01-16T03:50:29.000-08:00","amenity":"community_centre","name":"Centennial Park Leisure Centre and Arena","tags":{"opening_hours":"Mo-Su 06:00-23:00","addr:housenumber":"14600","addr:street":"North Bluff Road"}}
{"lat":49.0287964,"lon":-122.8167302,"timestamp":"2019-09-02T22:08:26.000-07:00","amenity":"community_centre","name":"Horst and Emmy Werner Centre for Active Living","tags":{"opening_hours":"Mo-Th 07:00-21:00; Fr 07:00-19:00; Sa 09:00-17:00; Su,PH off","addr:housenumber":"1475","addr:street":"Anderson Street"}}
{"lat":49.0895451,"lon":-122.6230934,"timestamp":"2019-09-13T13:57:05.000-07:00","amenity":"community_centre","name":"Murrayville Hall","tags":{"addr:housenumber":"21667","website":"http://murrayvillehall.ca","addr:street":"48 Avenue","operator":"Murrayville Community Memorial Hall Association","addr:city":"Langley"}}
{"lat":49.2787678,"lon":-123.1092628,"timestamp":"2016-05-18T07:19:58.000-07:00","amenity":"food_court","name":"Costco Food Court","tags":{"wheelchair":"yes"}}
{"lat":49.2810908,"lon":-123.1000958,"timestamp":"2017-10-22T15:20:09.000-07:00","amenity":"community_centre","name":"Carnegie Community Centre","tags":{"addr:housenumber":"401","addr:street":"Main Street","wikidata":"Q5043884"}}
{"lat":49.2787068,"lon":-122.7919508,"timestamp":"2020-01-29T18:22:17.000-08:00","amenity":"community_centre","name":"WorkBC","tags":{}}
{"lat":49.3251479,"lon":-123.134022,"timestamp":"2020-06-27T15:12:27.000-07:00","amenity":"community_centre","name":"ACCESS","tags":{"alt_name":"Aboriginal Community Centre Employment Services Society","office":"employment_agency","level":"1"}}
{"lat":49.2707965,"lon":-123.1362969,"timestamp":"2019-03-19T06:05:04.000-07:00","amenity":"theatre","name":"The Improv Center","tags":{"addr:housenumber":"1502","website":"https://www.vtsl.com/","addr:street":"Duranleau Street","phone":"+1-604-280-4444"}}
{"lat":49.0475966,"lon":-122.2919218,"timestamp":"2018-06-20T15:10:40.000-07:00","amenity":"theatre","name":"Yuk Yuk's","tags":{"description":"International Stand-Up Comedy","alt_name":"Mike Breslin's Yuk Yuk's Comedy Club","website":"https://www.yukyuks.com/index.cfm?action=mobile.club&venueID=4108","theatre:genre":"stand_up_comedy","phone":"+1-604-746-4488"}}
{"lat":49.2797453,"lon":-122.9168914,"timestamp":"2020-06-03T04:31:49.000-07:00","amenity":"theatre","name":"Images Theatre","tags":{}}
{"lat":49.2766458,"lon":-123.1421577,"timestamp":"2019-03-22T02:48:01.000-07:00","amenity":"theatre","name":"Bard On The Beach (Summer Only)","tags":{"addr:housenumber":"1695","website":"https://bardonthebeach.org/","phone":"+1-604-737-0625","addr:street":"Whyte Avenue","source":"Bing","wikidata":"Q807984"}}
{"lat":49.2005685,"lon":-122.9136462,"timestamp":"2020-01-08T23:16:32.000-08:00","amenity":"cinema","name":"Landmark Cinemas","tags":{"addr:housenumber":"800","website":"https://www.landmarkcinemas.com/showtimes/new-westminster","addr:street":"Carnarvon Street","phone":"+1-604-521-6564"}}
{"lat":49.2811013,"lon":-123.0983698,"timestamp":"2019-03-19T04:32:37.000-07:00","amenity":"theatre","name":"The Rickshaw","tags":{"addr:housenumber":"254","website":"http://rickshawtheatre.com","phone":"+1-604-681-8915","addr:street":"East Hastings Street","addr:postcode":"V6A 1P1","wikidata":"Q38378234","addr:city":"Vancouver"}}
{"lat":49.2853917,"lon":-123.1173168,"timestamp":"2017-07-18T00:11:29.000-07:00","amenity":"food_court","name":"International Food Court","tags":{}}
{"lat":49.2704435,"lon":-123.135278,"timestamp":"2019-03-19T01:50:52.000-07:00","amenity":"theatre","name":"Carousel Theatre","tags":{"addr:housenumber":"1411","website":"https://www.carouseltheatre.ca/","addr:street":"Cartwright Street","phone":"+1-604-685-6217"}}
{"lat":49.21633,"lon":-122.9846623,"timestamp":"2019-07-01T01:00:58.000-07:00","amenity":"theatre","name":"Michael J. Fox Theatre","tags":{"wheelchair":"yes","addr:housenumber":"7373","website":"https://www.michaeljfoxtheatre.ca/","phone":"+1-604-664-8875","addr:street":"MacPherson Avenue","addr:postcode":"V5J 2B7","addr:city":"Burnaby"}}
{"lat":49.263685,"lon":-123.1332074,"timestamp":"2018-02-15T23:57:37.000-08:00","amenity":"community_centre","name":"Canada Service","tags":{"addr:housenumber":"1263","name:en":"Canada Service","addr:street":"West Broadway","phone":"+1-800-367-5693"}}
{"lat":49.2809933,"lon":-123.0890396,"timestamp":"2019-07-17T18:32:17.000-07:00","amenity":"community_centre","name":"YWCA Cause We Care House","tags":{"addr:housenumber":"720","addr:street":"East Hastings Street","phone":"+1-604-282-3113","addr:postcode":"V6A 1R5","addr:city":"Vancouver"}}
